GLOBALSTAR M035 [-]     
1 25851U 99037A   24068.62404757 -.00000083  00000+0 -73201-3 0  9992
2 25851  51.9994  13.2017 0013534 308.8897 228.4267 11.04528874 44811
GLOBALSTAR M032 [-]     
1 25852U 99037B   24068.15088414 -.00000061  00000+0  19771-3 0  9996
2 25852  51.9921 231.6133 0010663 102.4487 257.7506 11.19049941 82610
GLOBALSTAR M051 [-]     
1 25853U 99037C   24068.31052705 -.00000080  00000+0 -20302-3 0  9993
2 25853  51.9785  84.7492 0001704 104.5537 255.5463 11.42194646 79151
GLOBALSTAR M030 [-]     
1 25854U 99037D   24068.61148617 -.00000086  00000+0 -23774-3 0  9997
2 25854  51.9864 279.7381 0002927 301.9624  58.0908 11.55085239 96241
GLOBALSTAR M048 [-]     
1 25872U 99041A   24068.58481868 -.00000060  00000+0  27159-3 0  9998
2 25872  51.9410   1.1192 0013638  97.5272  83.0398 11.33843576 72161
GLOBALSTAR M026 [-]     
1 25873U 99041B   24068.51662422 -.00000125  00000+0 -22486-2 0  9999
2 25873  51.9996 136.3084 0001593 178.3274 287.1213 11.06835732 96927
GLOBALSTAR M043 [-]     
1 25874U 99041C   24068.33491775 -.00000025  00000+0  12845-2 0  9997
2 25874  51.9386  90.7880 0012909 237.8757 134.8956 11.25675075 70419
GLOBALSTAR M028 [-]     
1 25875U 99041D   24068.50925628 -.00000080  00000+0  13133-3 0  9999
2 25875  51.9612 141.5965 0064072 140.0423 220.5178 12.50551219131918
